[{"OBJECT_NAME":"STARLINK-31329","OBJECT_ID":"2024-044T","EPOCH":"2025-09-19T06:00:39.272256","MEAN_MOTION":15.27582015,"ECCENTRICITY":5.109e-5,"INCLINATION":43.0015,"RA_OF_ASC_NODE":355.4377,"ARG_OF_PERICENTER":271.7229,"MEAN_ANOMALY":88.3564,"EPHEMERIS_TYPE":0,"CLASSIFICATION_TYPE":"U","NORAD_CAT_ID":59169,"ELEMENT_SET_NO":999,"REV_AT_EPOCH":8734,"BSTAR":1.6522599e-5,"MEAN_MOTION_DOT":1.93e-6,"MEAN_MOTION_DDOT":0},{"OBJECT_NAME":"STARLINK-31340","OBJECT_ID":"2024-044U","EPOCH":"2025-09-19T04:26:21.115968","MEAN_MOTION":15.27578921,"ECCENTRICITY":0.0001297,"INCLINATION":43.0027,"RA_OF_ASC_NODE":316.0428,"ARG_OF_PERICENTER":231.0005,"MEAN_ANOMALY":129.0731,"EPHEMERIS_TYPE":0,"CLASSIFICATION_TYPE":"U","NORAD_CAT_ID":59170,"ELEMENT_SET_NO":999,"REV_AT_EPOCH":8779,"BSTAR":2.1529336e-5,"MEAN_MOTION_DOT":3.3e-6,"MEAN_MOTION_DDOT":0},{"OBJECT_NAME":"STARLINK-31344","OBJECT_ID":"2024-044V","EPOCH":"2025-09-18T17:32:55.943520","MEAN_MOTION":15.27597308,"ECCENTRICITY":0.00016909,"INCLINATION":43.0064,"RA_OF_ASC_NODE":358.4223,"ARG_OF_PERICENTER":282.4644,"MEAN_ANOMALY":77.6019,"EPHEMERIS_TYPE":0,"CLASSIFICATION_TYPE":"U","NORAD_CAT_ID":59171,"ELEMENT_SET_NO":999,"REV_AT_EPOCH":8729,"BSTAR":0.00010659036,"MEAN_MOTION_DOT":2.673e-5,"MEAN_MOTION_DDOT":0},{"OBJECT_NAME":"STARLINK-31348","OBJECT_ID":"2024-044W","EPOCH":"2025-09-19T03:50:45.165408","MEAN_MOTION":15.27604216,"ECCENTRICITY":0.00027903,"INCLINATION":43.0007,"RA_OF_ASC_NODE":308.9156,"ARG_OF_PERICENTER":287.7329,"MEAN_ANOMALY":72.3218,"EPHEMERIS_TYPE":0,"CLASSIFICATION_TYPE":"U","NORAD_CAT_ID":59172,"ELEMENT_SET_NO":999,"REV_AT_EPOCH":8787,"BSTAR":0.00097633571,"MEAN_MOTION_DOT":0.00026723,"MEAN_MOTION_DDOT":0},{"OBJECT_NAME":"STARLINK-31289","OBJECT_ID":"2024-044X","EPOCH":"2025-09-19T07:14:27.369024","MEAN_MOTION":15.27578381,"ECCENTRICITY":0.00010703,"INCLINATION":43.0011,"RA_OF_ASC_NODE":354.963,"ARG_OF_PERICENTER":209.5823,"MEAN_ANOMALY":150.4968,"EPHEMERIS_TYPE":0,"CLASSIFICATION_TYPE":"U","NORAD_CAT_ID":59173,"ELEMENT_SET_NO":999,"REV_AT_EPOCH":8738,"BSTAR":3.4220153e-5,"MEAN_MOTION_DOT":6.8e-6,"MEAN_MOTION_DDOT":0},{"OBJECT_NAME":"STARLINK-31283","OBJECT_ID":"2024-044Y","EPOCH":"2025-09-19T06:00:02.000160","MEAN_MOTION":15.27589817,"ECCENTRICITY":0.00014091,"INCLINATION":43.0009,"RA_OF_ASC_NODE":308.3111,"ARG_OF_PERICENTER":268.4384,"MEAN_ANOMALY":268.3697,"EPHEMERIS_TYPE":0,"CLASSIFICATION_TYPE":"U","NORAD_CAT_ID":59174,"ELEMENT_SET_NO":999,"REV_AT_EPOCH":579,"BSTAR":-0.00042866273,"MEAN_MOTION_DOT":-0.00012042,"MEAN_MOTION_DDOT":0},{"OBJECT_NAME":"STARLINK-31439","OBJECT_ID":"2024-045A","EPOCH":"2025-09-19T04:59:21.361632","MEAN_MOTION":15.27588408,"ECCENTRICITY":0.00015405,"INCLINATION":43.0072,"RA_OF_ASC_NODE":337.686,"ARG_OF_PERICENTER":268.0877,"MEAN_ANOMALY":91.9798,"EPHEMERIS_TYPE":0,"CLASSIFICATION_TYPE":"U","NORAD_CAT_ID":59178,"ELEMENT_SET_NO":999,"REV_AT_EPOCH":2330,"BSTAR":0.00015352626,"MEAN_MOTION_DOT":3.966e-5,"MEAN_MOTION_DDOT":0},{"OBJECT_NAME":"STARLINK-31410","OBJECT_ID":"2024-045B","EPOCH":"2025-09-19T06:04:22.507392","MEAN_MOTION":15.28875831,"ECCENTRICITY":0.00015363,"INCLINATION":43.0031,"RA_OF_ASC_NODE":340.6203,"ARG_OF_PERICENTER":349.3117,"MEAN_ANOMALY":10.7702,"EPHEMERIS_TYPE":0,"CLASSIFICATION_TYPE":"U","NORAD_CAT_ID":59179,"ELEMENT_SET_NO":999,"REV_AT_EPOCH":8694,"BSTAR":0.00046193757,"MEAN_MOTION_DOT":0.00012984,"MEAN_MOTION_DDOT":0},{"OBJECT_NAME":"STARLINK-31395","OBJECT_ID":"2024-045C","EPOCH":"2025-09-19T05:28:11.919936","MEAN_MOTION":15.27612336,"ECCENTRICITY":3.757e-5,"INCLINATION":43.009,"RA_OF_ASC_NODE":341.2999,"ARG_OF_PERICENTER":200.5883,"MEAN_ANOMALY":159.4954,"EPHEMERIS_TYPE":0,"CLASSIFICATION_TYPE":"U","NORAD_CAT_ID":59180,"ELEMENT_SET_NO":999,"REV_AT_EPOCH":8693,"BSTAR":0.00014891977,"MEAN_MOTION_DOT":3.842e-5,"MEAN_MOTION_DDOT":0},{"OBJECT_NAME":"STARLINK-31486","OBJECT_ID":"2024-045D","EPOCH":"2025-09-19T05:04:54.043104","MEAN_MOTION":15.27589352,"ECCENTRICITY":0.00016953,"INCLINATION":43.0059,"RA_OF_ASC_NODE":337.7152,"ARG_OF_PERICENTER":273.5384,"MEAN_ANOMALY":86.5274,"EPHEMERIS_TYPE":0,"CLASSIFICATION_TYPE":"U","NORAD_CAT_ID":59181,"ELEMENT_SET_NO":999,"REV_AT_EPOCH":8697,"BSTAR":0.0001205901,"MEAN_MOTION_DOT":3.058e-5,"MEAN_MOTION_DDOT":0},{"OBJECT_NAME":"STARLINK-31411","OBJECT_ID":"2024-045E","EPOCH":"2025-09-19T05:44:42.241056","MEAN_MOTION":15.27576225,"ECCENTRICITY":0.00013425,"INCLINATION":43.0016,"RA_OF_ASC_NODE":340.5179,"ARG_OF_PERICENTER":274.8378,"MEAN_ANOMALY":85.232,"EPHEMERIS_TYPE":0,"CLASSIFICATION_TYPE":"U","NORAD_CAT_ID":59182,"ELEMENT_SET_NO":999,"REV_AT_EPOCH":8694,"BSTAR":1.4366198e-5,"MEAN_MOTION_DOT":1.33e-6,"MEAN_MOTION_DDOT":0},{"OBJECT_NAME":"STARLINK-31382","OBJECT_ID":"2024-045G","EPOCH":"2025-09-17T06:32:37.535424","MEAN_MOTION":15.27539535,"ECCENTRICITY":0.00014376,"INCLINATION":43.0004,"RA_OF_ASC_NODE":351.5527,"ARG_OF_PERICENTER":276.6606,"MEAN_ANOMALY":83.4082,"EPHEMERIS_TYPE":0,"CLASSIFICATION_TYPE":"U","NORAD_CAT_ID":59184,"ELEMENT_SET_NO":999,"REV_AT_EPOCH":8664,"BSTAR":-7.2819167e-5,"MEAN_MOTION_DOT":-2.263e-5,"MEAN_MOTION_DDOT":0},{"OBJECT_NAME":"STARLINK-31394","OBJECT_ID":"2024-045H","EPOCH":"2025-09-19T06:01:35.481504","MEAN_MOTION":15.27582631,"ECCENTRICITY":0.00012673,"INCLINATION":43.0031,"RA_OF_ASC_NODE":330.2314,"ARG_OF_PERICENTER":230.0863,"MEAN_ANOMALY":129.9878,"EPHEMERIS_TYPE":0,"CLASSIFICATION_TYPE":"U","NORAD_CAT_ID":59185,"ELEMENT_SET_NO":999,"REV_AT_EPOCH":8706,"BSTAR":4.6997694e-5,"MEAN_MOTION_DOT":1.031e-5,"MEAN_MOTION_DDOT":0},{"OBJECT_NAME":"STARLINK-31403","OBJECT_ID":"2024-045J","EPOCH":"2025-09-19T03:52:28.720128","MEAN_MOTION":15.27589548,"ECCENTRICITY":0.00015266,"INCLINATION":43.0018,"RA_OF_ASC_NODE":319.8129,"ARG_OF_PERICENTER":275.8896,"MEAN_ANOMALY":84.1782,"EPHEMERIS_TYPE":0,"CLASSIFICATION_TYPE":"U","NORAD_CAT_ID":59186,"ELEMENT_SET_NO":999,"REV_AT_EPOCH":8711,"BSTAR":0.00015850787,"MEAN_MOTION_DOT":4.103e-5,"MEAN_MOTION_DDOT":0},{"OBJECT_NAME":"STARLINK-31514","OBJECT_ID":"2024-045K","EPOCH":"2025-09-19T06:25:24.703392","MEAN_MOTION":15.27582943,"ECCENTRICITY":0.00013565,"INCLINATION":42.9924,"RA_OF_ASC_NODE":340.7147,"ARG_OF_PERICENTER":262.8758,"MEAN_ANOMALY":97.1939,"EPHEMERIS_TYPE":0,"CLASSIFICATION_TYPE":"U","NORAD_CAT_ID":59187,"ELEMENT_SET_NO":999,"REV_AT_EPOCH":8694,"BSTAR":8.9015046e-5,"MEAN_MOTION_DOT":2.189e-5,"MEAN_MOTION_DDOT":0},{"OBJECT_NAME":"STARLINK-31478","OBJECT_ID":"2024-045L","EPOCH":"2025-09-19T06:10:36.373152","MEAN_MOTION":15.27585857,"ECCENTRICITY":6.512e-5,"INCLINATION":42.996,"RA_OF_ASC_NODE":340.6422,"ARG_OF_PERICENTER":147.0713,"MEAN_ANOMALY":213.018,"EPHEMERIS_TYPE":0,"CLASSIFICATION_TYPE":"U","NORAD_CAT_ID":59188,"ELEMENT_SET_NO":999,"REV_AT_EPOCH":8694,"BSTAR":-0.00010686911,"MEAN_MOTION_DOT":-3.202e-5,"MEAN_MOTION_DDOT":0}]
