STARLINK-31329          
1 59169U 24044T   25262.25045454  .00000193  00000+0  16523-4 0  9993
2 59169  43.0015 355.4377 0000510 271.7229  88.3564 15.27582015 87347
STARLINK-31340          
1 59170U 24044U   25262.18496662  .00000330  00000+0  21529-4 0  9993
2 59170  43.0027 316.0428 0001297 231.0005 129.0731 15.27578921 87795
STARLINK-31344          
1 59171U 24044V   25261.73120305  .00002673  00000+0  10659-3 0  9995
2 59171  43.0064 358.4223 0001690 282.4644  77.6019 15.27597308 87298
STARLINK-31348          
1 59172U 24044W   25262.16024497  .00026723  00000+0  97634-3 0  9999
2 59172  43.0007 308.9156 0002790 287.7329  72.3218 15.27604216 87875
STARLINK-31289          
1 59173U 24044X   25262.30170566  .00000680  00000+0  34220-4 0  9992
2 59173  43.0011 354.9630 0001070 209.5823 150.4968 15.27578381 87389
STARLINK-31283          
1 59174U 24044Y   25262.25002315 -.00012042  00000+0 -42866-3 0  9994
2 59174  43.0009 308.3111 0001409 268.4384 268.3697 15.27589817  5795
STARLINK-31439          
1 59178U 24045A   25262.20788613  .00003966  00000+0  15353-3 0  9990
2 59178  43.0072 337.6860 0001540 268.0877  91.9798 15.27588408 23308
STARLINK-31410          
1 59179U 24045B   25262.25303828  .00012984  00000+0  46194-3 0  9994
2 59179  43.0031 340.6203 0001536 349.3117  10.7702 15.28875831 86947
STARLINK-31395          
1 59180U 24045C   25262.22791574  .00003842  00000+0  14892-3 0  9995
2 59180  43.0090 341.2999 0000375 200.5883 159.4954 15.27612336 86938
STARLINK-31486          
1 59181U 24045D   25262.21173661  .00003058  00000+0  12059-3 0  9998
2 59181  43.0059 337.7152 0001695 273.5384  86.5274 15.27589352 86977
STARLINK-31411          
1 59182U 24045E   25262.23937779  .00000133  00000+0  14366-4 0  9994
2 59182  43.0016 340.5179 0001342 274.8378  85.2320 15.27576225 86948
STARLINK-31382          
1 59184U 24045G   25260.27265666 -.00002263  00000+0 -72819-4 0  9992
2 59184  43.0004 351.5527 0001437 276.6606  83.4082 15.27539535 86640
STARLINK-31394          
1 59185U 24045H   25262.25110511  .00001031  00000+0  46998-4 0  9990
2 59185  43.0031 330.2314 0001267 230.0863 129.9878 15.27582631 87060
STARLINK-31403          
1 59186U 24045J   25262.16144352  .00004103  00000+0  15851-3 0  9997
2 59186  43.0018 319.8129 0001526 275.8896  84.1782 15.27589548 87110
STARLINK-31514          
1 59187U 24045K   25262.26764703  .00002189  00000+0  89015-4 0  9993
2 59187  42.9924 340.7147 0001356 262.8758  97.1939 15.27582943 86942
STARLINK-31478          
1 59188U 24045L   25262.25736543 -.00003202  00000+0 -10687-3 0  9991
2 59188  42.9960 340.6422 0000651 147.0713 213.0180 15.27585857 86944
